[
  {
    "ORDINAL": "1",
    "COMMENT": "GENERATED VIA SPACETRACK.ORG API",
    "ORIGINATOR": "18 SPCS",
    "NORAD_CAT_ID": "965",
    "OBJECT_NAME": "OPS 6582 (TRANSIT 5B-5)",
    "OBJECT_TYPE": "PAYLOAD",
    "CLASSIFICATION_TYPE": "U",
    "INTLDES": "64083D",
    "EPOCH": "2023-02-02 12:09:47",
    "EPOCH_MICROSECONDS": "487168",
    "MEAN_MOTION": "13.56803418",
    "ECCENTRICITY": "0.0039216",
    "INCLINATION": "90.0302",
    "RA_OF_ASC_NODE": "196.1767",
    "ARG_OF_PERICENTER": "276.7733",
    "MEAN_ANOMALY": "147.6389",
    "EPHEMERIS_TYPE": "0",
    "ELEMENT_SET_NO": "999",
    "REV_AT_EPOCH": "87671",
    "BSTAR": "0.000064171",
    "MEAN_MOTION_DOT": "0.00000055",
    "MEAN_MOTION_DDOT": "0",
    "FILE": "3768366",
    "TLE_LINE0": "0 OPS 6582 (TRANSIT 5B-5)",
    "TLE_LINE1": "1 00965U 64083D   23033.50679962  .00000055  00000-0  64171-4 0  9999",
    "TLE_LINE2": "2 00965  90.0302 196.1767 0039216 276.7733 147.6389 13.56803418876715",
    "OBJECT_ID": "1964-083D",
    "OBJECT_NUMBER": "965",
    "SEMIMAJOR_AXIS": "7425.469",
    "PERIOD": "106.132",
    "APOGEE": "1076.454",
    "PERIGEE": "1018.214",
    "DECAYED": "0"
  },
  {
    "ORDINAL": "1",
    "COMMENT": "GENERATED VIA SPACETRACK.ORG API",
    "ORIGINATOR": "18 SPCS",
    "NORAD_CAT_ID": "967",
    "OBJECT_NAME": "THOR ABLESTAR DEB",
    "OBJECT_TYPE": "DEBRIS",
    "CLASSIFICATION_TYPE": "U",
    "INTLDES": "64083F",
    "EPOCH": "2023-02-02 09:16:39",
    "EPOCH_MICROSECONDS": "253152",
    "MEAN_MOTION": "13.66363336",
    "ECCENTRICITY": "0.0025213",
    "INCLINATION": "89.9623",
    "RA_OF_ASC_NODE": "179.2128",
    "ARG_OF_PERICENTER": "92.446",
    "MEAN_ANOMALY": "322.0582",
    "EPHEMERIS_TYPE": "0",
    "ELEMENT_SET_NO": "999",
    "REV_AT_EPOCH": "88837",
    "BSTAR": "0.00036373",
    "MEAN_MOTION_DOT": "0.00000311",
    "MEAN_MOTION_DDOT": "0",
    "FILE": "3768549",
    "TLE_LINE0": "0 THOR ABLESTAR DEB",
    "TLE_LINE1": "1   967U 64083F   23033.38656543  .00000311  00000-0  36373-3 0  9994",
    "TLE_LINE2": "2   967  89.9623 179.2128 0025213  92.4460 322.0582 13.66363336888375",
    "OBJECT_ID": "1964-083F",
    "OBJECT_NUMBER": "967",
    "SEMIMAJOR_AXIS": "7390.793",
    "PERIOD": "105.389",
    "APOGEE": "1031.292",
    "PERIGEE": "994.024",
    "DECAYED": "0"
  },
  {
    "ORDINAL": "1",
    "COMMENT": "GENERATED VIA SPACETRACK.ORG API",
    "ORIGINATOR": "18 SPCS",
    "NORAD_CAT_ID": "968",
    "OBJECT_NAME": "COSMOS 52",
    "OBJECT_TYPE": "PAYLOAD",
    "CLASSIFICATION_TYPE": "U",
    "INTLDES": "65001A",
    "EPOCH": "1965-01-18 05:22:17",
    "EPOCH_MICROSECONDS": "979743",
    "MEAN_MOTION": "16.10493257",
    "ECCENTRICITY": "0.0064116",
    "INCLINATION": "64.9909",
    "RA_OF_ASC_NODE": "264.0012",
    "ARG_OF_PERICENTER": "13.2806",
    "MEAN_ANOMALY": "346.8873",
    "EPHEMERIS_TYPE": "0",
    "ELEMENT_SET_NO": "999",
    "REV_AT_EPOCH": "110",
    "BSTAR": "0",
    "MEAN_MOTION_DOT": "0.00101323",
    "MEAN_MOTION_DDOT": "0.000027768",
    "FILE": "33911",
    "TLE_LINE0": "0 COSMOS 52",
    "TLE_LINE1": "1 00968U 65001  A 65018.22381921  .00101323 +27768-4 +00000-0 0  9997",
    "TLE_LINE2": "2 00968 064.9909 264.0012 0064116 013.2806 346.8873 16.10493257001104",
    "OBJECT_ID": "1965-001A",
    "OBJECT_NUMBER": "968",
    "SEMIMAJOR_AXIS": "6623.632",
    "PERIOD": "89.414",
    "APOGEE": "287.965",
    "PERIGEE": "203.029",
    "DECAYED": "1"
  },
  {
    "ORDINAL": "1",
    "COMMENT": "GENERATED VIA SPACETRACK.ORG API",
    "ORIGINATOR": "18 SPCS",
    "NORAD_CAT_ID": "969",
    "OBJECT_NAME": "SL-3 R/B",
    "OBJECT_TYPE": "ROCKET BODY",
    "CLASSIFICATION_TYPE": "U",
    "INTLDES": "65001B",
    "EPOCH": "1965-01-29 05:04:36",
    "EPOCH_MICROSECONDS": "960095",
    "MEAN_MOTION": "16.41475114",
    "ECCENTRICITY": "0",
    "INCLINATION": "64.9922",
    "RA_OF_ASC_NODE": "222.9057",
    "ARG_OF_PERICENTER": "0",
    "MEAN_ANOMALY": "0.0003",
    "EPHEMERIS_TYPE": "0",
    "ELEMENT_SET_NO": "999",
    "REV_AT_EPOCH": "288",
    "BSTAR": "0",
    "MEAN_MOTION_DOT": "0.06316849",
    "MEAN_MOTION_DDOT": "0.12653",
    "FILE": "33911",
    "TLE_LINE0": "0 SL-3 R/B",
    "TLE_LINE1": "1 00969U 65001  B 65029.21153889  .06316849 +12653-0 +00000-0 0  9999",
    "TLE_LINE2": "2 00969 064.9922 222.9057 0000000 000.0000 000.0003 16.41475114002880",
    "OBJECT_ID": "1965-001B",
    "OBJECT_NUMBER": "969",
    "SEMIMAJOR_AXIS": "6540.023",
    "PERIOD": "87.726",
    "APOGEE": "161.888",
    "PERIGEE": "161.888",
    "DECAYED": "1"
  },
  {
    "ORDINAL": "1",
    "COMMENT": "GENERATED VIA SPACETRACK.ORG API",
    "ORIGINATOR": "18 SPCS",
    "NORAD_CAT_ID": "970",
    "OBJECT_NAME": "SL-3 DEB",
    "OBJECT_TYPE": "DEBRIS",
    "CLASSIFICATION_TYPE": "U",
    "INTLDES": "65001C",
    "EPOCH": "1965-01-11 19:47:46",
    "EPOCH_MICROSECONDS": "178592",
    "MEAN_MOTION": "16.12845073",
    "ECCENTRICITY": "0.0089577",
    "INCLINATION": "64.9509",
    "RA_OF_ASC_NODE": "287.6863",
    "ARG_OF_PERICENTER": "14.6767",
    "MEAN_ANOMALY": "345.5817",
    "EPHEMERIS_TYPE": "0",
    "ELEMENT_SET_NO": "999",
    "REV_AT_EPOCH": "7",
    "BSTAR": "0",
    "MEAN_MOTION_DOT": "0.05097413",
    "MEAN_MOTION_DDOT": "0.072982",
    "FILE": "33911",
    "TLE_LINE0": "0 SL-3 DEB",
    "TLE_LINE1": "1 00970U 65001  C 65011.82484003  .05097413 +72982-1 +00000-0 0  9998",
    "TLE_LINE2": "2 00970 064.9509 287.6863 0089577 014.6767 345.5817 16.12845073000075",
    "OBJECT_ID": "1965-001C",
    "OBJECT_NUMBER": "970",
    "SEMIMAJOR_AXIS": "6617.191",
    "PERIOD": "89.283",
    "APOGEE": "298.331",
    "PERIGEE": "179.781",
    "DECAYED": "1"
  },
  {
    "ORDINAL": "1",
    "COMMENT": "GENERATED VIA SPACETRACK.ORG API",
    "ORIGINATOR": "18 SPCS",
    "NORAD_CAT_ID": "971",
    "OBJECT_NAME": "SL-3 DEB",
    "OBJECT_TYPE": "DEBRIS",
    "CLASSIFICATION_TYPE": "U",
    "INTLDES": "65001D",
    "EPOCH": "1965-01-12 01:46:38",
    "EPOCH_MICROSECONDS": "263007",
    "MEAN_MOTION": "16.10650632",
    "ECCENTRICITY": "0.0055855",
    "INCLINATION": "65.0625",
    "RA_OF_ASC_NODE": "286.5554",
    "ARG_OF_PERICENTER": "23.9115",
    "MEAN_ANOMALY": "336.347",
    "EPHEMERIS_TYPE": "0",
    "ELEMENT_SET_NO": "999",
    "REV_AT_EPOCH": "11",
    "BSTAR": "0",
    "MEAN_MOTION_DOT": "0.03362322",
    "MEAN_MOTION_DDOT": "0.030659",
    "FILE": "33911",
    "TLE_LINE0": "0 SL-3 DEB",
    "TLE_LINE1": "1 00971U 65001  D 65012.07405397  .03362322 +30659-1 +00000-0 0  9993",
    "TLE_LINE2": "2 00971 065.0625 286.5554 0055855 023.9115 336.3470 16.10650632000115",
    "OBJECT_ID": "1965-001D",
    "OBJECT_NUMBER": "971",
    "SEMIMAJOR_AXIS": "6623.200",
    "PERIOD": "89.405",
    "APOGEE": "282.059",
    "PERIGEE": "208.071",
    "DECAYED": "1"
  },
  {
    "ORDINAL": "1",
    "COMMENT": "GENERATED VIA SPACETRACK.ORG API",
    "ORIGINATOR": "18 SPCS",
    "NORAD_CAT_ID": "972",
    "OBJECT_NAME": "OPS 3928",
    "OBJECT_TYPE": "PAYLOAD",
    "CLASSIFICATION_TYPE": "U",
    "INTLDES": "65002A",
    "EPOCH": "1965-02-09 01:28:26",
    "EPOCH_MICROSECONDS": "722560",
    "MEAN_MOTION": "16.32277017",
    "ECCENTRICITY": "0.0049238",
    "INCLINATION": "74.9706",
    "RA_OF_ASC_NODE": "86.974",
    "ARG_OF_PERICENTER": "84.37",
    "MEAN_ANOMALY": "276.1936",
    "EPHEMERIS_TYPE": "0",
    "ELEMENT_SET_NO": "999",
    "REV_AT_EPOCH": "387",
    "BSTAR": "0",
    "MEAN_MOTION_DOT": "0.0590271",
    "MEAN_MOTION_DDOT": "0.11111",
    "FILE": "33911",
    "TLE_LINE0": "0 OPS 3928",
    "TLE_LINE1": "1 00972U 65002  A 65040.06142040  .05902710 +11111-0 +00000-0 0  9992",
    "TLE_LINE2": "2 00972 074.9706 086.9740 0049238 084.3700 276.1936 16.32277017003873",
    "OBJECT_ID": "1965-002A",
    "OBJECT_NUMBER": "972",
    "SEMIMAJOR_AXIS": "6564.569",
    "PERIOD": "88.220",
    "APOGEE": "218.756",
    "PERIGEE": "154.111",
    "DECAYED": "1"
  },
  {
    "ORDINAL": "1",
    "COMMENT": "GENERATED VIA SPACETRACK.ORG API",
    "ORIGINATOR": "18 SPCS",
    "NORAD_CAT_ID": "973",
    "OBJECT_NAME": "OPS 7040",
    "OBJECT_TYPE": "PAYLOAD",
    "CLASSIFICATION_TYPE": "U",
    "INTLDES": "65003A",
    "EPOCH": "1979-07-13 07:08:16",
    "EPOCH_MICROSECONDS": "573919",
    "MEAN_MOTION": "16.43478098",
    "ECCENTRICITY": "0.0006265",
    "INCLINATION": "98.6524",
    "RA_OF_ASC_NODE": "101.9092",
    "ARG_OF_PERICENTER": "220.4248",
    "MEAN_ANOMALY": "139.6301",
    "EPHEMERIS_TYPE": "0",
    "ELEMENT_SET_NO": "999",
    "REV_AT_EPOCH": "79490",
    "BSTAR": "0.00011877",
    "MEAN_MOTION_DOT": "0.08440403",
    "MEAN_MOTION_DDOT": "0.000012013",
    "FILE": "34037",
    "TLE_LINE0": "0 OPS 7040",
    "TLE_LINE1": "1 00973U 65003  A 79194.29741405  .08440403 +12013-4 +11877-3 0  9996",
    "TLE_LINE2": "2 00973 098.6524 101.9092 0006265 220.4248 139.6301 16.43478098794900",
    "OBJECT_ID": "1965-003A",
    "OBJECT_NUMBER": "973",
    "SEMIMAJOR_AXIS": "6534.708",
    "PERIOD": "87.619",
    "APOGEE": "160.667",
    "PERIGEE": "152.479",
    "DECAYED": "1"
  }
]
